SL-8 R/B                
1 15483U 85006B   26189.94074015  .00000115  00000+0  46881-4 0  9993
2 15483  74.0450  38.0320 0019263 281.9726 182.6798 14.37842985171455
SL-12 R/B(2)            
1 15772U 85042D   26189.25556829  .00000102  00000+0  67363-4 0  9990
2 15772  71.1061 193.0034 0037200 296.3836  73.8501 14.22009915131539
SL-14 R/B               
1 15945U 85069B   26189.50737700  .00000330  00000+0  34410-4 0  9998
2 15945  82.5268 271.3158 0019612 148.2166 212.0239 14.86532146190785
SL-16 R/B               
1 16182U 85097B   26189.44137389 -.00000249  00000+0 -10087-3 0  9997
2 16182  71.0016 246.3322 0005366  64.9274 306.1100 14.16612949104334
SL-14 R/B               
1 16496U 86006B   26189.92184817  .00000337  00000+0  33056-4 0  9995
2 16496  82.5278 145.6602 0075025 229.9539 129.5082 14.86965060167222
COSMOS 1743             
1 16719U 86034A   26189.78161107  .00046106  00000+0  39705-3 0  9995
2 16719  82.5276 305.7387 0005131 197.3314 162.7773 15.69084012199173
SL-14 R/B               
1 16792U 86046B   26189.83992842  .00000337  00000+0  35901-4 0  9994
2 16792  82.4834 325.7147 0022957 183.8648 176.2395 14.85687319144394
SL-14 R/B               
1 16882U 86055B   26189.90900131  .00000280  00000+0  29376-4 0  9998
2 16882  82.5198  12.7074 0017418 292.9986 182.8451 14.85737462137363
AJISAI (EGS)            
1 16908U 86061A   26189.98483282 -.00000107  00000+0 -68354-4 0  9994
2 16908  50.0098  80.3683 0011106 236.0170 219.8559 12.44516683483109
SL-14 R/B               
1 17567U 87024B   26189.89661776  .00000331  00000+0  34788-4 0  9993
2 17567  82.5292 338.8436 0017306 215.4018 144.6051 14.86228622106132
COSMOS 1833             
1 17589U 87027A   26189.91140605  .00000149  00000+0  10545-3 0  9997
2 17589  70.9211  71.2080 0023803  18.9278 341.2722 14.13064435 27440
SL-16 R/B               
1 17590U 87027B   26189.95602452 -.00000224  00000+0 -87378-4 0  9991
2 17590  71.0028  20.9546 0007134 288.5027  71.5321 14.17173871 32526
SL-14 R/B               
1 17912U 87038B   26189.95399812  .00000284  00000+0  29962-4 0  9993
2 17912  82.5006 182.5685 0020631 121.4092 238.9145 14.85458672 97232
COSMOS 1844             
1 17973U 87041A   26189.95768110  .00000284  00000+0  17238-3 0  9997
2 17973  70.8992 138.3858 0031715 204.0642 155.9000 14.14577531 20735
SL-14 R/B               
1 18153U 87055B   26189.64009800  .00000254  00000+0  26379-4 0  9997
2 18153  82.4976 235.0057 0019909 337.7330  22.3020 14.85724484 87890
COSMOS 1867             
1 18187U 87060A   26189.72023722 -.00000049  00000+0  19263-4 0  9995
2 18187  65.0120 327.7530 0016993 282.0689  77.8491 14.31518085 37261
SL-14 R/B               
1 18749U 88001B   26189.84570190  .00000260  00000+0  27199-4 0  9995
2 18749  82.5128  81.3976 0017576 192.9134 167.1635 14.85624108 60011
COSMOS 1933             
1 18958U 88020A   26189.91106549  .00002924  00000+0  13881-3 0  9990
2 18958  82.5135 130.9212 0005638 123.5103 236.6671 15.18862035 68624
SL-3 R/B                
1 19046U 88032B   26189.95444656  .00002551  00000+0  11730-3 0  9997
2 19046  97.5267 172.9762 0025876 166.8488 193.3427 15.21000917 70531
SL-16 R/B               
1 19120U 88039B   26189.68225651 -.00000037  00000+0  53495-5 0  9993
2 19120  71.0132 172.7061 0020972 159.7952 200.4008 14.19632162975551
COSMOS 1953             
1 19210U 88050A   26189.66493984  .00005177  00000+0  17531-3 0  9998
2 19210  82.5067  36.3695 0012031  60.6495 299.5946 15.30275466 56275
SL-8 R/B                
1 19257U 88053B   26189.63717395  .00000132  00000+0  51172-4 0  9990
2 19257  74.0464 249.5183 0019507  37.1846  76.7992 14.38976067993994
COSMOS 1975             
1 19573U 88093A   26189.94067927  .00004631  00000+0  15990-3 0  9993
2 19573  82.5196 355.8141 0012548 101.6551 258.6098 15.29611966 37930
SL-14 R/B               
1 19574U 88093B   26189.83863282  .00000278  00000+0  29121-4 0  9995
2 19574  82.5318 288.3189 0020579   1.6641 137.7511 14.85757423 19006
SL-16 R/B               
1 19650U 88102B   26189.61934153 -.00000235  00000+0 -94558-4 0  9994
2 19650  70.9991 257.0439 0014658 195.7283 164.3387 14.16168719944011
INTERCOSMOS 24          
1 20261U 89080A   26189.93612509  .00000378  00000+0  10632-3 0  9999
2 20261  82.6046  25.4898 1187534  11.4720 351.1058 12.59689109682064
SL-14 R/B               
1 20262U 89080C   26189.76220329  .00000067  00000+0  19725-4 0  9994
2 20262  82.5941  95.4462 1228481 268.0136  78.0180 12.50577646675280
DELTA 1 R/B             
1 20323U 89089B   26189.46283543  .00000237  00000+0  66848-4 0  9992
2 20323  97.0634  17.6163 0070584 100.7669 260.1485 14.50745034913246
ARIANE 40 R/B           
1 20443U 90005H   26189.72497734  .00000164  00000+0  65445-4 0  9994
2 20443  98.2948 246.6702 0009814 193.3144 166.7787 14.39938771910227
DELTA 2 R/B(1)          
1 20453U 90008B   26189.42110239  .00081337  00000+0  51586-3 0  9998
2 20453  35.5999  93.2361 0062101 312.6243  46.9273 15.72528443945045
