OBJECT_NAME,OBJECT_ID,EPOCH,MEAN_MOTION,ECCENTRICITY,INCLINATION,RA_OF_ASC_NODE,ARG_OF_PERICENTER,MEAN_ANOMALY,EPHEMERIS_TYPE,CLASSIFICATION_TYPE,NORAD_CAT_ID,ELEMENT_SET_NO,REV_AT_EPOCH,BSTAR,MEAN_MOTION_DOT,MEAN_MOTION_DDOT
SL-8 R/B,1985-006B,2026-07-08T22:34:39.948960,14.37842985,.00192632,74.0450,38.0320,281.9726,182.6798,0,U,15483,999,17145,.46880514E-4,.115E-5,0
SL-12 R/B(2),1985-042D,2026-07-08T06:08:01.100256,14.22009915,.00372,71.1061,193.0034,296.3836,73.8501,0,U,15772,999,13153,.67363314E-4,.102E-5,0
SL-14 R/B,1985-069B,2026-07-08T12:10:37.372800,14.86532146,.00196122,82.5268,271.3158,148.2166,212.0239,0,U,15945,999,19078,.34410154E-4,.33E-5,0
SL-16 R/B,1985-097B,2026-07-08T10:35:34.704096,14.16612949,.00053665,71.0016,246.3322,64.9274,306.1100,0,U,16182,999,10433,-.10087148E-3,-.249E-5,0
SL-14 R/B,1986-006B,2026-07-08T22:07:27.681888,14.86965060,.00750252,82.5278,145.6602,229.9539,129.5082,0,U,16496,999,16722,.33056283E-4,.337E-5,0
COSMOS 1743,1986-034A,2026-07-08T18:45:31.196448,15.69084012,.00051316,82.5276,305.7387,197.3314,162.7773,0,U,16719,999,19917,.39705353E-3,.46106E-3,0
SL-14 R/B,1986-046B,2026-07-08T20:09:29.815488,14.85687319,.00229571,82.4834,325.7147,183.8648,176.2395,0,U,16792,999,14439,.35900791E-4,.337E-5,0
SL-14 R/B,1986-055B,2026-07-08T21:48:57.713184,14.85737462,.00174181,82.5198,12.7074,292.9986,182.8451,0,U,16882,999,13736,.29376254E-4,.28E-5,0
AJISAI (EGS),1986-061A,2026-07-08T23:38:09.555648,12.44516683,.0011106,50.0098,80.3683,236.0170,219.8559,0,U,16908,999,48310,-.68353631E-4,-.107E-5,0
SL-14 R/B,1987-024B,2026-07-08T21:31:07.774464,14.86228622,.0017306,82.5292,338.8436,215.4018,144.6051,0,U,17567,999,10613,.34788307E-4,.331E-5,0
COSMOS 1833,1987-027A,2026-07-08T21:52:25.482720,14.13064435,.00238032,70.9211,71.2080,18.9278,341.2722,0,U,17589,999,2744,.10545344E-3,.149E-5,0
SL-16 R/B,1987-027B,2026-07-08T22:56:40.518528,14.17173871,.00071343,71.0028,20.9546,288.5027,71.5321,0,U,17590,999,3252,-.87378339E-4,-.224E-5,0
SL-14 R/B,1987-038B,2026-07-08T22:53:45.437568,14.85458672,.00206313,82.5006,182.5685,121.4092,238.9145,0,U,17912,999,9723,.29961847E-4,.284E-5,0
COSMOS 1844,1987-041A,2026-07-08T22:59:03.647040,14.14577531,.00317154,70.8992,138.3858,204.0642,155.9000,0,U,17973,999,2073,.17237781E-3,.284E-5,0
SL-14 R/B,1987-055B,2026-07-08T15:21:44.467200,14.85724484,.00199092,82.4976,235.0057,337.7330,22.3020,0,U,18153,999,8789,.26379407E-4,.254E-5,0
COSMOS 1867,1987-060A,2026-07-08T17:17:08.495808,14.31518085,.00169938,65.0120,327.7530,282.0689,77.8491,0,U,18187,999,3726,.19263395E-4,-.49E-6,0
SL-14 R/B,1988-001B,2026-07-08T20:17:48.644160,14.85624108,.00175761,82.5128,81.3976,192.9134,167.1635,0,U,18749,999,6001,.27198626E-4,.26E-5,0
COSMOS 1933,1988-020A,2026-07-08T21:51:56.058336,15.18862035,.00056388,82.5135,130.9212,123.5103,236.6671,0,U,18958,999,6862,.13880661E-3,.2924E-4,0
SL-3 R/B,1988-032B,2026-07-08T22:54:24.182784,15.21000917,.0025876,97.5267,172.9762,166.8488,193.3427,0,U,19046,999,7053,.11730029E-3,.2551E-4,0
SL-16 R/B,1988-039B,2026-07-08T16:22:26.962464,14.19632162,.00209725,71.0132,172.7061,159.7952,200.4008,0,U,19120,999,97555,.5349478E-5,-.37E-6,0
COSMOS 1953,1988-050A,2026-07-08T15:57:30.802176,15.30275466,.00120318,82.5067,36.3695,60.6495,299.5946,0,U,19210,999,5627,.17530534E-3,.5177E-4,0
SL-8 R/B,1988-053B,2026-07-08T15:17:31.829280,14.38976067,.00195075,74.0464,249.5183,37.1846,76.7992,0,U,19257,999,99399,.51171872E-4,.132E-5,0
COSMOS 1975,1988-093A,2026-07-08T22:34:34.688928,15.29611966,.00125483,82.5196,355.8141,101.6551,258.6098,0,U,19573,999,3793,.15990447E-3,.4631E-4,0
SL-14 R/B,1988-093B,2026-07-08T20:07:37.875648,14.85757423,.00205799,82.5318,288.3189,1.6641,137.7511,0,U,19574,999,1900,.2912073E-4,.278E-5,0
SL-16 R/B,1988-102B,2026-07-08T14:51:51.108192,14.16168719,.00146585,70.9991,257.0439,195.7283,164.3387,0,U,19650,999,94401,-.9455815E-4,-.235E-5,0
INTERCOSMOS 24,1989-080A,2026-07-08T22:28:01.207776,12.59689109,.11875349,82.6046,25.4898,11.4720,351.1058,0,U,20261,999,68206,.10631985E-3,.378E-5,0
SL-14 R/B,1989-080C,2026-07-08T18:17:34.364256,12.50577646,.12284819,82.5941,95.4462,268.0136,78.0180,0,U,20262,999,67528,.19724576E-4,.67E-6,0
DELTA 1 R/B,1989-089B,2026-07-08T11:06:28.981152,14.50745034,.00705846,97.0634,17.6163,100.7669,260.1485,0,U,20323,999,91324,.66847541E-4,.237E-5,0
ARIANE 40 R/B,1990-005H,2026-07-08T17:23:58.042176,14.39938771,.00098148,98.2948,246.6702,193.3144,166.7787,0,U,20443,999,91022,.65444576E-4,.164E-5,0
DELTA 2 R/B(1),1990-008B,2026-07-08T10:06:23.246496,15.72528443,.00621011,35.5999,93.2361,312.6243,46.9273,0,U,20453,999,94504,.51586252E-3,.81337E-3,0
